     2.10           G: GLO NAV DATA                         RINEX VERSION / TYPE
sbf2rin-12.1.2                          12-APR-21 20:14     PGM / RUN BY / DATE 
    18                                                      LEAP SECONDS        
                                                            END OF HEADER       
01 21  4  6 20 15  0.0 7.749628275633E-05 0.000000000000E+00 7.200000000000E+04
   -2.477315722656E+04-6.597833633423E-01-2.793967723846E-09 0.000000000000E+00
    3.679287109375E+03 1.765289306641E-01-1.862645149231E-09 1.000000000000E+00
    4.890398925781E+03-3.478130340576E+00-1.862645149231E-09 0.000000000000E+00
01 21  4  7 16 45  0.0 7.754098623991E-05 0.000000000000E+00 5.964000000000E+04
   -1.190552441406E+04-2.050819396973E+00 9.313225746155E-10 0.000000000000E+00
    2.824764648438E+03-2.274919509888E+00 9.313225746155E-10 1.000000000000E+00
    2.239041992188E+04-8.022260665894E-01-1.862645149231E-09 0.000000000000E+00
02 21  4  6 21 15  0.0 4.737712442875E-04 9.094947017729E-13 7.560000000000E+04
   -1.844276806641E+04-1.660458564758E+00-1.862645149231E-09 0.000000000000E+00
    1.189229541016E+04 6.400775909424E-01-9.313225746155E-10-4.000000000000E+00
    1.299926220703E+04-2.956967353821E+00-2.793967723846E-09 0.000000000000E+00
03 21  4  6 21 45  0.0 3.376230597496E-05 9.094947017729E-13 7.740000000000E+04
   -6.604274414063E+03-2.516366958618E+00 0.000000000000E+00 0.000000000000E+00
    1.371297998047E+04 1.223015785217E+00-9.313225746155E-10 5.000000000000E+00
    2.050120996094E+04-1.637014389038E+00-2.793967723846E-09 0.000000000000E+00
04 21  4  6 23 15  0.0 8.126720786095E-05 1.818989403546E-12 8.280000000000E+04
   -2.341365234375E+03-1.771886825562E+00-0.000000000000E+00 0.000000000000E+00
    1.603923291016E+04 2.031845092773E+00-9.313225746155E-10 6.000000000000E+00
    1.972561816406E+04-1.865779876709E+00-2.793967723846E-09 0.000000000000E+00
05 21  4  6 23 45  0.0 6.952788680792E-05 9.094947017729E-13 8.460000000000E+04
    7.839815917969E+03-1.833513259888E+00 9.313225746155E-10 0.000000000000E+00
    7.615002929688E+03 2.566947937012E+00-1.862645149231E-09 1.000000000000E+00
    2.306255712891E+04-2.263374328613E-01-1.862645149231E-09 0.000000000000E+00
06 21  4  6 17 15  0.0 1.957602798939E-04 0.000000000000E+00 6.126000000000E+04
   -1.624941503906E+04 5.410900115967E-01-1.862645149231E-09 0.000000000000E+00
   -1.864377490234E+04 6.688051223755E-01-3.725290298462E-09-4.000000000000E+00
   -6.207286621094E+03-3.429374694824E+00-9.313225746155E-10 0.000000000000E+00
07 21  4  6 18 45  0.0-4.255212843418E-05-0.000000000000E+00 6.660000000000E+04
   -2.110550732422E+04 9.502096176147E-01-3.725290298462E-09 0.000000000000E+00
   -1.195814013672E+04 5.193929672241E-01-2.793967723846E-09 5.000000000000E+00
   -7.777315429688E+03-3.362871170044E+00-9.313225746155E-10 0.000000000000E+00
07 21  4  7 16 45  0.0-4.254467785358E-05-0.000000000000E+00 5.964000000000E+04
   -1.598623583984E+04-1.261711120605E-02-0.000000000000E+00 0.000000000000E+00
   -1.981045898438E+04 2.309780120850E-01-4.656612873077E-09 5.000000000000E+00
   -1.185137695313E+03-3.568343162537E+00-9.313225746155E-10 0.000000000000E+00
08 21  4  6 19 15  0.0-5.836505442858E-05-0.000000000000E+00 6.840000000000E+04
   -2.494888281250E+04-3.899621963501E-01-2.793967723846E-09 0.000000000000E+00
   -4.549281738281E+03 7.318973541260E-02-1.862645149231E-09 6.000000000000E+00
    2.709877929688E+03-3.546745300293E+00-1.862645149231E-09 0.000000000000E+00
08 21  4  7 16 45  0.0-5.837902426720E-05 0.000000000000E+00 5.964000000000E+04
   -1.804042089844E+04-1.384418487549E+00 9.313225746155E-10 0.000000000000E+00
   -1.056455322266E+04-1.444204330444E+00-1.862645149231E-09 6.000000000000E+00
    1.466111816406E+04-2.756944656372E+00-1.862645149231E-09 0.000000000000E+00
09 21  4  6 20 15  0.0-1.334864646196E-05 1.818989403546E-12 7.200000000000E+04
    1.075806054688E+04 3.485774993896E-02 0.000000000000E+00 0.000000000000E+00
   -2.299510107422E+04-3.025159835815E-01 9.313225746155E-10-2.000000000000E+00
    2.089435058594E+03-3.536706924438E+00 9.313225746155E-10 0.000000000000E+00
09 21  4  7 16 45  0.0-1.320522278547E-05 1.818989403546E-12 5.964000000000E+04
    6.521529785156E+03 2.881000518799E+00-0.000000000000E+00 0.000000000000E+00
   -1.205560986328E+04-5.957765579224E-01-0.000000000000E+00-2.000000000000E+00
    2.151039355469E+04-1.214374542236E+00-1.862645149231E-09 0.000000000000E+00
10 21  4  6 22 15  0.0-6.774999201298E-05 0.000000000000E+00 7.920000000000E+04
    1.922467773438E+03-1.131057739258E-01 9.313225746155E-10 0.000000000000E+00
   -2.463075292969E+04 8.943052291870E-01 9.313225746155E-10-7.000000000000E+00
   -6.510039550781E+03-3.416796684265E+00 1.862645149231E-09 0.000000000000E+00
10 21  4  7 16 45  0.0-6.776954978704E-05-0.000000000000E+00 5.964000000000E+04
   -1.135687255859E+04 2.879131317139E+00 9.313225746155E-10 0.000000000000E+00
   -8.147324707031E+03-5.054349899292E-01-0.000000000000E+00-7.000000000000E+00
    2.130726611328E+04 1.347104072571E+00-2.793967723846E-09 0.000000000000E+00
12 21  4  6 23 45  0.0 2.187564969063E-04 3.637978807092E-12 8.460000000000E+04
   -1.412553515625E+04-7.478733062744E-01 9.313225746155E-10 0.000000000000E+00
   -1.832289599609E+04-1.277179718018E+00 0.000000000000E+00-1.000000000000E+00
    1.079015869141E+04-3.151659011841E+00-0.000000000000E+00 0.000000000000E+00
13 21  4  6 23 45  0.0-5.308352410793E-05-0.000000000000E+00 8.460000000000E+04
   -1.284881884766E+04-1.328237533569E+00 0.000000000000E+00 0.000000000000E+00
   -2.742050781250E+03-2.685975074768E+00-0.000000000000E+00-2.000000000000E+00
    2.184388037109E+04-1.117136001587E+00-1.862645149231E-09 0.000000000000E+00
16 21  4  6 18 15  0.0-1.346506178379E-05 0.000000000000E+00 6.480000000000E+04
    1.652193652344E+04 1.078440666199E+00-0.000000000000E+00 0.000000000000E+00
   -1.672039257813E+04-8.614921569824E-01 9.313225746155E-10-1.000000000000E+00
    1.004077783203E+04-3.188269615173E+00-0.000000000000E+00 0.000000000000E+00
17 21  4  6 17 45  0.0 4.141079261899E-04 2.728484105319E-12 6.300000000000E+04
    8.762378417969E+03-2.254543304443E-01 1.862645149231E-09 0.000000000000E+00
    1.040933349609E+04 2.949165344238E+00 1.862645149231E-09 4.000000000000E+00
    2.157679248047E+04-1.334367752075E+00-9.313225746155E-10 0.000000000000E+00
18 21  4  6 19 15  0.0 7.232371717691E-05 9.094947017729E-13 6.840000000000E+04
    1.219152587891E+04 9.048385620117E-01 2.793967723846E-09 0.000000000000E+00
    8.531330566406E+03 2.694378852844E+00 9.313225746155E-10-3.000000000000E+00
    2.074995263672E+04-1.634973526001E+00-0.000000000000E+00 0.000000000000E+00
18 21  4  7 16 45  0.0 7.241312414408E-05 9.094947017729E-13 5.964000000000E+04
    1.062190917969E+04-1.121713638306E+00 0.000000000000E+00 0.000000000000E+00
    1.245295410156E+03 2.968907356262E+00 1.862645149231E-09-3.000000000000E+00
    2.316785595703E+04 3.603429794312E-01-9.313225746155E-10 0.000000000000E+00
19 21  4  6 20 45  0.0-1.387512311339E-04-9.094947017729E-13 7.380000000000E+04
    1.550017285156E+04 1.724622726440E+00 3.725290298462E-09 0.000000000000E+00
    6.146528808594E+03 2.014806747437E+00 0.000000000000E+00 3.000000000000E+00
    1.930470654297E+04-2.025752067566E+00-0.000000000000E+00 0.000000000000E+00
20 21  4  6 22 15  0.0-4.679895937443E-05-0.000000000000E+00 7.920000000000E+04
    1.599089648438E+04 2.425255775452E+00 2.793967723846E-09 0.000000000000E+00
   -9.263227539063E+02 1.246180534363E+00-9.313225746155E-10 2.000000000000E+00
    1.987664648438E+04-1.889134407043E+00-0.000000000000E+00 0.000000000000E+00
21 21  4  6 23 45  0.0-1.998934894800E-04-2.728484105319E-12 8.460000000000E+04
    1.382384619141E+04 2.744868278503E+00 2.793967723846E-09 0.000000000000E+00
   -7.626520019531E+03 1.635055541992E-01-1.862645149231E-09 4.000000000000E+00
    2.002799511719E+04-1.833868980408E+00-0.000000000000E+00 0.000000000000E+00
22 21  4  6 23 45  0.0-1.065079122782E-04-1.818989403546E-12 8.460000000000E+04
   -4.039679199219E+03 3.106664657593E+00 9.313225746155E-10 0.000000000000E+00
   -1.067352978516E+04 3.916225433350E-01-9.313225746155E-10-3.000000000000E+00
    2.278536669922E+04 7.431001663208E-01-9.313225746155E-10 0.000000000000E+00
23 21  4  6 23 45  0.0 3.769341856241E-04 1.818989403546E-12 8.460000000000E+04
   -2.305945898438E+04 1.170382499695E+00-0.000000000000E+00 0.000000000000E+00
   -6.470439453125E+03 3.601875305176E-01 9.313225746155E-10 3.000000000000E+00
    8.757488769531E+03 3.345564842224E+00-9.313225746155E-10 0.000000000000E+00
10 21  4  7 17 15  0.0-6.777048110962E-05-0.000000000000E+00 6.120000000000E+04
   -6.040240722656E+03 2.977115631104E+00 0.000000000000E+00 0.000000000000E+00
   -9.492130859375E+03-9.855880737305E-01-0.000000000000E+00-7.000000000000E+00
    2.287490966797E+04 3.835773468018E-01-2.793967723846E-09 0.000000000000E+00
08 21  4  7 17 15  0.0-5.837809294462E-05 0.000000000000E+00 6.120000000000E+04
   -2.024849511719E+04-1.025086402893E+00 0.000000000000E+00 0.000000000000E+00
   -1.251826855469E+04-7.312650680542E-01-2.793967723846E-09 6.000000000000E+00
    9.197221191406E+03-3.274868965149E+00-1.862645149231E-09 0.000000000000E+00
01 21  4  7 17 15  0.0 7.754005491734E-05 0.000000000000E+00 6.120000000000E+04
   -1.569824902344E+04-2.119127273560E+00 9.313225746155E-10 0.000000000000E+00
   -8.213012695313E+02-1.752801895142E+00-0.000000000000E+00 1.000000000000E+00
    2.010043945313E+04-1.725674629211E+00-1.862645149231E-09 0.000000000000E+00
